{"fetched_at":"2026-07-16T06:43:01.746Z","source":"https://celestrak.org/NORAD/elements/gp.php?NAME=ICEYE&FORMAT=JSON","constellation":"iceye","records":[{"OBJECT_NAME":"ICEYE-X40","OBJECT_ID":"2024-149CK","EPOCH":"2026-07-15T03:46:08.983488","CLASSIFICATION_TYPE":"U","MEAN_MOTION":14.98070105,"ECCENTRICITY":0.00039977,"INCLINATION":97.6795,"RA_OF_ASC_NODE":272.2031,"ARG_OF_PERICENTER":6.477,"MEAN_ANOMALY":353.6503,"EPHEMERIS_TYPE":0,"NORAD_CAT_ID":60549,"ELEMENT_SET_NO":999,"REV_AT_EPOCH":10426,"BSTAR":0.00012620525,"MEAN_MOTION_DOT":0.00001435,"MEAN_MOTION_DDOT":0},{"OBJECT_NAME":"ICEYE-X49","OBJECT_ID":"2024-247H","EPOCH":"2026-07-15T18:00:44.724960","CLASSIFICATION_TYPE":"U","MEAN_MOTION":15.13515356,"ECCENTRICITY":0.00011765,"INCLINATION":44.9961,"RA_OF_ASC_NODE":204.8204,"ARG_OF_PERICENTER":234.5476,"MEAN_ANOMALY":125.5292,"EPHEMERIS_TYPE":0,"NORAD_CAT_ID":62384,"ELEMENT_SET_NO":999,"REV_AT_EPOCH":8650,"BSTAR":0.00011211654,"MEAN_MOTION_DOT":0.00001785,"MEAN_MOTION_DDOT":0},{"OBJECT_NAME":"ICEYE-X47","OBJECT_ID":"2024-247N","EPOCH":"2026-07-15T11:05:51.547488","CLASSIFICATION_TYPE":"U","MEAN_MOTION":15.13485709,"ECCENTRICITY":0.0001376,"INCLINATION":44.9961,"RA_OF_ASC_NODE":205.9543,"ARG_OF_PERICENTER":350.9145,"MEAN_ANOMALY":9.1707,"EPHEMERIS_TYPE":0,"NORAD_CAT_ID":62389,"ELEMENT_SET_NO":999,"REV_AT_EPOCH":8646,"BSTAR":0.000070923546,"MEAN_MOTION_DOT":0.00001034,"MEAN_MOTION_DDOT":0},{"OBJECT_NAME":"ICEYE-X42","OBJECT_ID":"2025-009CT","EPOCH":"2026-07-15T18:42:57.907296","CLASSIFICATION_TYPE":"U","MEAN_MOTION":14.91855669,"ECCENTRICITY":0.00012771,"INCLINATION":97.7389,"RA_OF_ASC_NODE":274.5792,"ARG_OF_PERICENTER":97.3161,"MEAN_ANOMALY":262.8203,"EPHEMERIS_TYPE":0,"NORAD_CAT_ID":62698,"ELEMENT_SET_NO":999,"REV_AT_EPOCH":8155,"BSTAR":0.00010577998,"MEAN_MOTION_DOT":0.00001013,"MEAN_MOTION_DDOT":0},{"OBJECT_NAME":"ICEYE-X41","OBJECT_ID":"2025-009CV","EPOCH":"2026-07-15T17:57:40.008672","CLASSIFICATION_TYPE":"U","MEAN_MOTION":14.96914733,"ECCENTRICITY":0.00002596,"INCLINATION":97.706,"RA_OF_ASC_NODE":275.8606,"ARG_OF_PERICENTER":276.239,"MEAN_ANOMALY":83.8802,"EPHEMERIS_TYPE":0,"NORAD_CAT_ID":62700,"ELEMENT_SET_NO":999,"REV_AT_EPOCH":8168,"BSTAR":0.00014230433,"MEAN_MOTION_DOT":0.00001576,"MEAN_MOTION_DDOT":0},{"OBJECT_NAME":"ICEYE-X45","OBJECT_ID":"2025-009DA","EPOCH":"2026-07-15T19:09:03.136608","CLASSIFICATION_TYPE":"U","MEAN_MOTION":15.00845134,"ECCENTRICITY":0.00011419,"INCLINATION":97.8415,"RA_OF_ASC_NODE":283.7205,"ARG_OF_PERICENTER":95.1486,"MEAN_ANOMALY":264.9868,"EPHEMERIS_TYPE":0,"NORAD_CAT_ID":62705,"ELEMENT_SET_NO":999,"REV_AT_EPOCH":8197,"BSTAR":0.00039287915,"MEAN_MOTION_DOT":0.00004934,"MEAN_MOTION_DDOT":0},{"OBJECT_NAME":"ICEYE-X44","OBJECT_ID":"2025-009DC","EPOCH":"2026-07-15T18:40:03.648864","CLASSIFICATION_TYPE":"U","MEAN_MOTION":14.9617007,"ECCENTRICITY":0.00024773,"INCLINATION":97.7059,"RA_OF_ASC_NODE":275.4528,"ARG_OF_PERICENTER":71.3952,"MEAN_ANOMALY":288.7538,"EPHEMERIS_TYPE":0,"NORAD_CAT_ID":62707,"ELEMENT_SET_NO":999,"REV_AT_EPOCH":10421,"BSTAR":0.00016627696,"MEAN_MOTION_DOT":0.00001816,"MEAN_MOTION_DDOT":0},{"OBJECT_NAME":"ICEYE-X48","OBJECT_ID":"2025-052AV","EPOCH":"2026-07-15T05:51:04.279392","CLASSIFICATION_TYPE":"U","MEAN_MOTION":14.98125864,"ECCENTRICITY":0.00039847,"INCLINATION":97.6838,"RA_OF_ASC_NODE":88.0002,"ARG_OF_PERICENTER":104.2469,"MEAN_ANOMALY":255.9196,"EPHEMERIS_TYPE":0,"NORAD_CAT_ID":63253,"ELEMENT_SET_NO":999,"REV_AT_EPOCH":7287,"BSTAR":0.00015447143,"MEAN_MOTION_DOT":0.00001772,"MEAN_MOTION_DDOT":0},{"OBJECT_NAME":"ICEYE-X50","OBJECT_ID":"2025-052AX","EPOCH":"2026-07-15T23:58:25.050720","CLASSIFICATION_TYPE":"U","MEAN_MOTION":14.95366608,"ECCENTRICITY":0.00034518,"INCLINATION":97.6857,"RA_OF_ASC_NODE":88.3371,"ARG_OF_PERICENTER":99.7479,"MEAN_ANOMALY":260.4131,"EPHEMERIS_TYPE":0,"NORAD_CAT_ID":63255,"ELEMENT_SET_NO":999,"REV_AT_EPOCH":7295,"BSTAR":0.000062291233,"MEAN_MOTION_DOT":0.00000631,"MEAN_MOTION_DDOT":0},{"OBJECT_NAME":"ICEYE-X51","OBJECT_ID":"2025-052AZ","EPOCH":"2026-07-15T20:36:44.335008","CLASSIFICATION_TYPE":"U","MEAN_MOTION":15.00873092,"ECCENTRICITY":0.00020666,"INCLINATION":97.761,"RA_OF_ASC_NODE":91.903,"ARG_OF_PERICENTER":71.4056,"MEAN_ANOMALY":288.7392,"EPHEMERIS_TYPE":0,"NORAD_CAT_ID":63257,"ELEMENT_SET_NO":999,"REV_AT_EPOCH":7310,"BSTAR":0.00017983023,"MEAN_MOTION_DOT":0.00002227,"MEAN_MOTION_DDOT":0},{"OBJECT_NAME":"ICEYE-X46","OBJECT_ID":"2025-052BA","EPOCH":"2026-07-15T14:15:33.516288","CLASSIFICATION_TYPE":"U","MEAN_MOTION":14.95368332,"ECCENTRICITY":0.0001714,"INCLINATION":97.6859,"RA_OF_ASC_NODE":87.9393,"ARG_OF_PERICENTER":81.7007,"MEAN_ANOMALY":278.4408,"EPHEMERIS_TYPE":0,"NORAD_CAT_ID":63258,"ELEMENT_SET_NO":999,"REV_AT_EPOCH":7289,"BSTAR":0.000097838,"MEAN_MOTION_DOT":0.00001023,"MEAN_MOTION_DDOT":0},{"OBJECT_NAME":"ICEYE-X54","OBJECT_ID":"2025-135AU","EPOCH":"2026-07-15T22:41:38.609664","CLASSIFICATION_TYPE":"U","MEAN_MOTION":14.94734453,"ECCENTRICITY":0.00020993,"INCLINATION":97.7747,"RA_OF_ASC_NODE":311.0943,"ARG_OF_PERICENTER":178.3864,"MEAN_ANOMALY":181.7363,"EPHEMERIS_TYPE":0,"NORAD_CAT_ID":64570,"ELEMENT_SET_NO":999,"REV_AT_EPOCH":5819,"BSTAR":0.00014059498,"MEAN_MOTION_DOT":0.00001469,"MEAN_MOTION_DDOT":0},{"OBJECT_NAME":"ICEYE-X52","OBJECT_ID":"2025-135AW","EPOCH":"2026-07-15T22:39:20.435328","CLASSIFICATION_TYPE":"U","MEAN_MOTION":14.9365422,"ECCENTRICITY":0.00013012,"INCLINATION":97.7769,"RA_OF_ASC_NODE":310.881,"ARG_OF_PERICENTER":184.7211,"MEAN_ANOMALY":175.3997,"EPHEMERIS_TYPE":0,"NORAD_CAT_ID":64572,"ELEMENT_SET_NO":999,"REV_AT_EPOCH":5817,"BSTAR":0.00009896242,"MEAN_MOTION_DOT":0.00000989,"MEAN_MOTION_DDOT":0},{"OBJECT_NAME":"ICEYE-X56","OBJECT_ID":"2025-135AY","EPOCH":"2026-07-15T22:22:47.981856","CLASSIFICATION_TYPE":"U","MEAN_MOTION":14.95764896,"ECCENTRICITY":0.00014423,"INCLINATION":97.7768,"RA_OF_ASC_NODE":311.6707,"ARG_OF_PERICENTER":186.4782,"MEAN_ANOMALY":173.642,"EPHEMERIS_TYPE":0,"NORAD_CAT_ID":64574,"ELEMENT_SET_NO":999,"REV_AT_EPOCH":5822,"BSTAR":0.00018048386,"MEAN_MOTION_DOT":0.00001954,"MEAN_MOTION_DDOT":0},{"OBJECT_NAME":"ICEYE-X57","OBJECT_ID":"2025-135BC","EPOCH":"2026-07-15T22:25:56.631072","CLASSIFICATION_TYPE":"U","MEAN_MOTION":15.00864964,"ECCENTRICITY":0.00021679,"INCLINATION":97.8029,"RA_OF_ASC_NODE":313.4921,"ARG_OF_PERICENTER":58.6244,"MEAN_ANOMALY":301.5191,"EPHEMERIS_TYPE":0,"NORAD_CAT_ID":64578,"ELEMENT_SET_NO":999,"REV_AT_EPOCH":5833,"BSTAR":0.00019166821,"MEAN_MOTION_DOT":0.00002377,"MEAN_MOTION_DDOT":0},{"OBJECT_NAME":"ICEYE-X55","OBJECT_ID":"2025-135BF","EPOCH":"2026-07-15T22:33:49.462848","CLASSIFICATION_TYPE":"U","MEAN_MOTION":14.95365209,"ECCENTRICITY":0.00019015,"INCLINATION":97.7767,"RA_OF_ASC_NODE":311.5035,"ARG_OF_PERICENTER":229.6698,"MEAN_ANOMALY":130.4356,"EPHEMERIS_TYPE":0,"NORAD_CAT_ID":64581,"ELEMENT_SET_NO":999,"REV_AT_EPOCH":5821,"BSTAR":0.00017484395,"MEAN_MOTION_DOT":0.00001872,"MEAN_MOTION_DDOT":0}]}
