ICEYE-X40               
1 60549U 24149CK  26196.15704842  .00001435  00000+0  12621-3 0  9996
2 60549  97.6795 272.2031 0003997   6.4770 353.6503 14.98070105104261
ICEYE-X49               
1 62384U 24247H   26196.75051765  .00001785  00000+0  11212-3 0  9992
2 62384  44.9961 204.8204 0001176 234.5476 125.5292 15.13515356 86504
ICEYE-X47               
1 62389U 24247N   26196.46240217  .00001034  00000+0  70924-4 0  9990
2 62389  44.9961 205.9543 0001376 350.9145   9.1707 15.13485709 86466
ICEYE-X42               
1 62698U 25009CT  26196.77983689  .00001013  00000+0  10578-3 0  9996
2 62698  97.7389 274.5792 0001277  97.3161 262.8203 14.91855669 81552
ICEYE-X41               
1 62700U 25009CV  26196.74837973  .00001576  00000+0  14230-3 0  9994
2 62700  97.7060 275.8606 0000259 276.2390  83.8802 14.96914733 81684
ICEYE-X45               
1 62705U 25009DA  26196.79795297  .00004934  00000+0  39288-3 0  9997
2 62705  97.8415 283.7205 0001141  95.1486 264.9868 15.00845134 81972
ICEYE-X44               
1 62707U 25009DC  26196.77782001  .00001816  00000+0  16628-3 0  9995
2 62707  97.7059 275.4528 0002477  71.3952 288.7538 14.96170070104215
ICEYE-X48               
1 63253U 25052AV  26196.24379953  .00001772  00000+0  15447-3 0  9999
2 63253  97.6838  88.0002 0003984 104.2469 255.9196 14.98125864 72879
ICEYE-X50               
1 63255U 25052AX  26196.99890105  .00000631  00000+0  62291-4 0  9993
2 63255  97.6857  88.3371 0003451  99.7479 260.4131 14.95366608 72951
ICEYE-X51               
1 63257U 25052AZ  26196.85884647  .00002227  00000+0  17983-3 0  9994
2 63257  97.7610  91.9030 0002066  71.4056 288.7392 15.00873092 73109
ICEYE-X46               
1 63258U 25052BA  26196.59413792  .00001023  00000+0  97838-4 0  9996
2 63258  97.6859  87.9393 0001714  81.7007 278.4408 14.95368332 72898
ICEYE-X54               
1 64570U 25135AU  26196.94558576  .00001469  00000+0  14059-3 0  9992
2 64570  97.7747 311.0943 0002099 178.3864 181.7363 14.94734453 58199
ICEYE-X52               
1 64572U 25135AW  26196.94398652  .00000989  00000+0  98962-4 0  9993
2 64572  97.7769 310.8810 0001301 184.7211 175.3997 14.93654220 58179
ICEYE-X56               
1 64574U 25135AY  26196.93249979  .00001954  00000+0  18048-3 0  9990
2 64574  97.7768 311.6707 0001442 186.4782 173.6420 14.95764896 58223
ICEYE-X57               
1 64578U 25135BC  26196.93468323  .00002377  00000+0  19167-3 0  9993
2 64578  97.8029 313.4921 0002167  58.6244 301.5191 15.00864964 58337
ICEYE-X55               
1 64581U 25135BF  26196.94015582  .00001872  00000+0  17484-3 0  9992
2 64581  97.7767 311.5035 0001901 229.6698 130.4356 14.95365209 58212
